[{"OBJECT_NAME":"TRANSPORTER-14 OBJECT D","OBJECT_ID":"2025-135D","EPOCH":"2026-03-09T20:39:49.544640","MEAN_MOTION":15.23890173,"ECCENTRICITY":0.00054537,"INCLINATION":97.459,"RA_OF_ASC_NODE":185.3159,"ARG_OF_PERICENTER":147.9892,"MEAN_ANOMALY":212.1678,"EPHEMERIS_TYPE":0,"CLASSIFICATION_TYPE":"U","NORAD_CAT_ID":64531,"ELEMENT_SET_NO":999,"REV_AT_EPOCH":3978,"BSTAR":0.00064565207,"MEAN_MOTION_DOT":0.00015541,"MEAN_MOTION_DDOT":0},{"OBJECT_NAME":"FENGYUN 1C DEB","OBJECT_ID":"1999-025BCE","EPOCH":"2026-03-09T20:27:54.391104","MEAN_MOTION":15.38307136,"ECCENTRICITY":0.00917966,"INCLINATION":98.5506,"RA_OF_ASC_NODE":34.4945,"ARG_OF_PERICENTER":39.9911,"MEAN_ANOMALY":320.8043,"EPHEMERIS_TYPE":0,"CLASSIFICATION_TYPE":"U","NORAD_CAT_ID":30988,"ELEMENT_SET_NO":999,"REV_AT_EPOCH":875,"BSTAR":0.0023570074,"MEAN_MOTION_DOT":0.00103953,"MEAN_MOTION_DDOT":0}]
